{
  "norad_id": 64438,
  "name": "STARLINK-34465",
  "history": [
    {
      "epoch": "2026-03-28T04:10:59.917440Z",
      "apogee_km": 475.99633210229695,
      "perigee_km": 474.3411217031362,
      "latitude_deg": 5.304387712127159e-05,
      "longitude_deg": 114.30064542170145,
      "height_km": 475.98055129978275,
      "semi_major_axis_km": 6853.305726902717,
      "eccentricity": 0.00012076,
      "inclination_deg": 53.161,
      "raan_deg": 2.6488,
      "arg_perigee_deg": 84.0039,
      "mean_anomaly_deg": 276.11,
      "mean_motion_rev_day": 15.30215521
    },
    {
      "epoch": "2026-03-29T00:33:41.480064Z",
      "apogee_km": 475.867939167455,
      "perigee_km": 474.37666994278425,
      "latitude_deg": -3.218446938068709e-05,
      "longitude_deg": 163.84780059372426,
      "height_km": 476.11766586661935,
      "semi_major_axis_km": 6853.259304555119,
      "eccentricity": 0.0001088,
      "inclination_deg": 53.1616,
      "raan_deg": 358.7061,
      "arg_perigee_deg": 97.4624,
      "mean_anomaly_deg": 262.65,
      "mean_motion_rev_day": 15.30231069
    },
    {
      "epoch": "2026-03-30T00:04:29.578368Z",
      "apogee_km": 476.08497974272814,
      "perigee_km": 474.2016983055637,
      "latitude_deg": 3.7117838825348676e-05,
      "longitude_deg": 165.63028371511618,
      "height_km": 476.17957953456823,
      "semi_major_axis_km": 6853.280339024145,
      "eccentricity": 0.0001374,
      "inclination_deg": 53.1619,
      "raan_deg": 354.1546,
      "arg_perigee_deg": 98.4323,
      "mean_anomaly_deg": 261.6834,
      "mean_motion_rev_day": 15.30224024
    },
    {
      "epoch": "2026-03-30T06:20:42.482112Z",
      "apogee_km": 476.03042096008176,
      "perigee_km": 474.44866165434814,
      "latitude_deg": 1.920456585480542e-06,
      "longitude_deg": 70.10518213531815,
      "height_km": 476.1487748126444,
      "semi_major_axis_km": 6853.376541307214,
      "eccentricity": 0.0001154,
      "inclination_deg": 53.1623,
      "raan_deg": 352.9408,
      "arg_perigee_deg": 90.7793,
      "mean_anomaly_deg": 269.334,
      "mean_motion_rev_day": 15.30191804
    },
    {
      "epoch": "2026-03-30T17:19:05.224800Z",
      "apogee_km": 476.1497294571018,
      "perigee_km": 474.231071918005,
      "latitude_deg": 3.8048758501648953e-05,
      "longitude_deg": -97.05939606569054,
      "height_km": 475.6413050558865,
      "semi_major_axis_km": 6853.327400687554,
      "eccentricity": 0.00013998,
      "inclination_deg": 53.1633,
      "raan_deg": 350.8216,
      "arg_perigee_deg": 62.1894,
      "mean_anomaly_deg": 297.9249,
      "mean_motion_rev_day": 15.30208262
    },
    {
      "epoch": "2026-03-31T10:33:40.248288Z",
      "apogee_km": 476.18819919013185,
      "perigee_km": 474.19689575681787,
      "latitude_deg": -1.025158498170754e-05,
      "longitude_deg": 0.2460902955852255,
      "height_km": 476.12877165591203,
      "semi_major_axis_km": 6853.329547473475,
      "eccentricity": 0.00014528,
      "inclination_deg": 53.1628,
      "raan_deg": 347.4812,
      "arg_perigee_deg": 92.1928,
      "mean_anomaly_deg": 267.9239,
      "mean_motion_rev_day": 15.30207543
    },
    {
      "epoch": "2026-04-01T21:02:52.238400Z",
      "apogee_km": 476.1616302825969,
      "perigee_km": 474.44826979508707,
      "latitude_deg": -2.0336324458088407e-05,
      "longitude_deg": -165.1439911116507,
      "height_km": 476.11986958967503,
      "semi_major_axis_km": 6853.441950038842,
      "eccentricity": 0.000125,
      "inclination_deg": 53.1604,
      "raan_deg": 340.8074,
      "arg_perigee_deg": 84.4249,
      "mean_anomaly_deg": 275.6894,
      "mean_motion_rev_day": 15.30169898
    },
    {
      "epoch": "2026-04-02T15:51:30.451968Z",
      "apogee_km": 475.99452190355987,
      "perigee_km": 474.25845319689415,
      "latitude_deg": 7.356285563730428e-05,
      "longitude_deg": -91.71546824409393,
      "height_km": 475.828745942514,
      "semi_major_axis_km": 6853.263487550226,
      "eccentricity": 0.00012666,
      "inclination_deg": 53.1607,
      "raan_deg": 337.1676,
      "arg_perigee_deg": 76.9539,
      "mean_anomaly_deg": 283.1604,
      "mean_motion_rev_day": 15.30229668
    },
    {
      "epoch": "2026-04-02T22:07:42.266208Z",
      "apogee_km": 475.8483102892633,
      "perigee_km": 474.17312686093555,
      "latitude_deg": 2.8527082662117067e-05,
      "longitude_deg": 172.76427475478803,
      "height_km": 475.8024427671955,
      "semi_major_axis_km": 6853.147718575099,
      "eccentricity": 0.00012222,
      "inclination_deg": 53.1605,
      "raan_deg": 335.9541,
      "arg_perigee_deg": 82.6945,
      "mean_anomaly_deg": 277.4195,
      "mean_motion_rev_day": 15.30268443
    },
    {
      "epoch": "2026-04-03T15:22:16.627872Z",
      "apogee_km": 476.3870249298998,
      "perigee_km": 473.85132014606006,
      "latitude_deg": -9.499289636338098e-06,
      "longitude_deg": -89.92566701655907,
      "height_km": 476.11399316951105,
      "semi_major_axis_km": 6853.256172537979,
      "eccentricity": 0.000185,
      "inclination_deg": 53.1594,
      "raan_deg": 332.6155,
      "arg_perigee_deg": 94.4154,
      "mean_anomaly_deg": 265.7058,
      "mean_motion_rev_day": 15.30232118
    },
    {
      "epoch": "2026-04-04T19:35:14.266176Z",
      "apogee_km": 475.44526196261177,
      "perigee_km": 474.9737517229405,
      "latitude_deg": 3.675538387903205e-05,
      "longitude_deg": -159.78888333661487,
      "height_km": 475.92124076391303,
      "semi_major_axis_km": 6853.346506842776,
      "eccentricity": 3.44e-05,
      "inclination_deg": 53.158,
      "raan_deg": 327.1512,
      "arg_perigee_deg": 37.3134,
      "mean_anomaly_deg": 322.7891,
      "mean_motion_rev_day": 15.30201863
    },
    {
      "epoch": "2026-04-05T08:07:40.954080Z",
      "apogee_km": 476.1540719244431,
      "perigee_km": 474.4297492105443,
      "latitude_deg": 1.1033463352540753e-05,
      "longitude_deg": 9.160266953029597,
      "height_km": 476.01684713193146,
      "semi_major_axis_km": 6853.428910567493,
      "eccentricity": 0.0001258,
      "inclination_deg": 53.158,
      "raan_deg": 324.7266,
      "arg_perigee_deg": 78.4268,
      "mean_anomaly_deg": 281.6874,
      "mean_motion_rev_day": 15.30174265
    },
    {
      "epoch": "2026-04-05T19:06:03.479040Z",
      "apogee_km": 475.9416988882049,
      "perigee_km": 474.53401569251673,
      "latitude_deg": -2.7712641575450557e-05,
      "longitude_deg": -158.00755869564298,
      "height_km": 476.12474889069335,
      "semi_major_axis_km": 6853.3748572903605,
      "eccentricity": 0.0001027,
      "inclination_deg": 53.1569,
      "raan_deg": 322.6033,
      "arg_perigee_deg": 89.0898,
      "mean_anomaly_deg": 271.022,
      "mean_motion_rev_day": 15.30192368
    },
    {
      "epoch": "2026-04-06T01:22:16.185792Z",
      "apogee_km": 475.89979872685944,
      "perigee_km": 474.50158077139713,
      "latitude_deg": 5.953016287803577e-05,
      "longitude_deg": 106.46895319161538,
      "height_km": 476.0487581458943,
      "semi_major_axis_km": 6853.337689749128,
      "eccentricity": 0.00010201,
      "inclination_deg": 53.1566,
      "raan_deg": 321.3902,
      "arg_perigee_deg": 85.9006,
      "mean_anomaly_deg": 274.2112,
      "mean_motion_rev_day": 15.30204816
    },
    {
      "epoch": "2026-04-07T14:59:32.550720Z",
      "apogee_km": 476.54439201532205,
      "perigee_km": 473.94586364773295,
      "latitude_deg": 2.302140605178288e-05,
      "longitude_deg": -106.67671367992263,
      "height_km": 476.20230502331947,
      "semi_major_axis_km": 6853.382127831527,
      "eccentricity": 0.00018958,
      "inclination_deg": 53.1579,
      "raan_deg": 314.1078,
      "arg_perigee_deg": 92.6565,
      "mean_anomaly_deg": 267.4653,
      "mean_motion_rev_day": 15.30189933
    },
    {
      "epoch": "2026-04-07T18:07:38.803008Z",
      "apogee_km": 476.5628396127304,
      "perigee_km": 473.85302702609624,
      "latitude_deg": -3.412907370136174e-05,
      "longitude_deg": -154.43606059831785,
      "height_km": 476.41234019017963,
      "semi_major_axis_km": 6853.344933319413,
      "eccentricity": 0.0001977,
      "inclination_deg": 53.1585,
      "raan_deg": 313.5033,
      "arg_perigee_deg": 103.1143,
      "mean_anomaly_deg": 257.0078,
      "mean_motion_rev_day": 15.3020239
    },
    {
      "epoch": "2026-04-08T14:30:18.247968Z",
      "apogee_km": 476.1418669843488,
      "perigee_km": 473.9214403405631,
      "latitude_deg": 3.184763090100268e-05,
      "longitude_deg": -104.8800472872452,
      "height_km": 476.0304508625901,
      "semi_major_axis_km": 6853.168653662456,
      "eccentricity": 0.000162,
      "inclination_deg": 53.1576,
      "raan_deg": 309.5605,
      "arg_perigee_deg": 95.2425,
      "mean_anomaly_deg": 264.8761,
      "mean_motion_rev_day": 15.30261431
    },
    {
      "epoch": "2026-04-09T18:43:16.962816Z",
      "apogee_km": 475.93792223370565,
      "perigee_km": 474.46445452320404,
      "latitude_deg": 3.9101476897491214e-05,
      "longitude_deg": -174.74449323665348,
      "height_km": 475.9564456698935,
      "semi_major_axis_km": 6853.338188378455,
      "eccentricity": 0.0001075,
      "inclination_deg": 53.1589,
      "raan_deg": 304.0995,
      "arg_perigee_deg": 78.8086,
      "mean_anomaly_deg": 281.3036,
      "mean_motion_rev_day": 15.30204649
    },
    {
      "epoch": "2026-04-10T13:31:55.750080Z",
      "apogee_km": 475.931602869,
      "perigee_km": 474.512957498001,
      "latitude_deg": -9.52826902089191e-06,
      "longitude_deg": -101.32527610164159,
      "height_km": 476.2215126390584,
      "semi_major_axis_km": 6853.3592801835,
      "eccentricity": 0.0001035,
      "inclination_deg": 53.1584,
      "raan_deg": 300.4529,
      "arg_perigee_deg": 98.186,
      "mean_anomaly_deg": 261.9258,
      "mean_motion_rev_day": 15.30197585
    }
  ]
}